NORAD_CAT_ID,OBJECT_NAME,OBJECT_TYPE,EPOCH,MEAN_MOTION,ECCENTRICITY,INCLINATION,RA_OF_ASC_NODE,ARG_OF_PERICENTER,MEAN_ANOMALY,BSTAR,MEAN_MOTION_DOT,MEAN_MOTION_DDOT,TLE_LINE0,TLE_LINE1,TLE_LINE2,SEMIMAJOR_AXIS,PERIOD,APOGEE,PERIGEE,DECAYED
50203.0,STARLINK-3257,PAYLOAD,2023-01-17 06:30:18,15.088073199999998,0.0001534,53.2154,350.0923,71.1131,289.0027,-6.8017e-05,-1.369e-05,0.0,0 STARLINK-3257,1 50203U 21125AZ  23017.27105223 -.00001369  00000-0 -68017-4 0  9993,2 50203  53.2154 350.0923 0001534  71.1131 289.0027 15.08807320 60436,6917.98,95.44,540.906,538.784,0.0
50203.0,STARLINK-3257,PAYLOAD,2023-01-18 01:34:56,15.08839609,0.0001262999999999,53.2147,346.524,84.0026,276.111,0.00098552,0.00015431,0.0,0 STARLINK-3257,1 50203U 21125AZ  23018.06593404  .00015431  00000-0  98552-3 0  9992,2 50203  53.2147 346.5240 0001263  84.0026 276.1110 15.08839609 60553,6917.882,95.438,540.62,538.873,0.0
50203.0,STARLINK-3257,PAYLOAD,2023-01-18 14:18:01,15.08869864,0.0001365999999999,53.2157,344.1457,72.1498,287.9643,0.0014762,0.00023303,0.0,0 STARLINK-3257,1 50203U 21125AZ  23018.59584813  .00023303  00000-0  14762-2 0  9991,2 50203  53.2157 344.1457 0001366  72.1498 287.9643 15.08869864 63777,6917.789000000001,95.436,540.599,538.7090000000001,0.0
50203.0,STARLINK-3257,PAYLOAD,2023-01-19 07:47:14,15.08892172,0.0001114,53.2151,340.8744,83.8831,276.2288,0.0011714,0.00018431,0.0,0 STARLINK-3257,1 50203U 21125AZ  23019.32446821  .00018431  00000-0  11714-2 0  9999,2 50203  53.2151 340.8744 0001114  83.8831 276.2288 15.08892172 60742,6917.721,95.434,540.357,538.815,0.0
50203.0,STARLINK-3257,PAYLOAD,2023-01-20 10:48:48,15.08842474,6.31e-05,53.2146,335.82,98.3003,261.806,0.00071398,0.00011094,0.0,0 STARLINK-3257,1 50203U 21125AZ  23020.45055602  .00011094  00000-0  71398-3 0  9991,2 50203  53.2146 335.8200 0000631  98.3003 261.8060 15.08842474 60919,6917.8730000000005,95.437,540.174,539.3009999999999,0.0
50203.0,STARLINK-3257,PAYLOAD,2023-01-20 12:24:10,15.087996900000002,0.0001548,53.2145,335.5224,62.7136,297.4014,-0.00077442,-0.00012578,0.0,0 STARLINK-3257,1 50203U 21125AZ  23020.51679239 -.00012578  00000-0 -77442-3 0  9992,2 50203  53.2145 335.5224 0001548  62.7136 297.4014 15.08799690 60927,6918.004,95.44,540.94,538.798,0.0
50203.0,STARLINK-3257,PAYLOAD,2023-01-21 05:53:26,15.08839191,0.0001102,53.2145,332.2504,85.2917,274.8201,0.002246,0.00035637,0.0,0 STARLINK-3257,1 50203U 21125AZ  23021.24544772  .00035637  00000-0  22460-2 0  9994,2 50203  53.2145 332.2504 0001102  85.2917 274.8201 15.08839191 61036,6917.883000000001,95.438,540.51,538.986,0.0
50203.0,STARLINK-3257,PAYLOAD,2023-01-21 13:50:22,15.0884679,0.0001226,53.2154,330.7628,85.1601,274.9531,0.0014409,0.00022723,0.0,0 STARLINK-3257,1 50203U 21125AZ  23021.57664867  .00022723  00000-0  14409-2 0  9994,2 50203  53.2154 330.7628 0001226  85.1601 274.9531 15.08846790 61087,6917.86,95.437,540.573,538.877,0.0
50203.0,STARLINK-3257,PAYLOAD,2023-01-22 13:41:09,15.08838165,0.0003086,53.2146,326.3035,76.2341,283.8994,0.0011956,0.00018791,0.0,0 STARLINK-3257,1 50203U 21125AZ  23022.57025432  .00018791  00000-0  11956-2 0  9998,2 50203  53.2146 326.3035 0003086  76.2341 283.8994 15.08838165 61235,6917.886,95.438,541.886,537.616,0.0
50203.0,STARLINK-3257,PAYLOAD,2023-01-23 05:35:01,15.08825199,0.000177,53.2147,323.3297,70.1175,290.0007,0.0011216,0.000176,0.0,0 STARLINK-3257,1 50203U 21125AZ  23023.23265790  .00017600  00000-0  11216-2 0  9992,2 50203  53.2147 323.3297 0001770  70.1175 290.0007 15.08825199 61338,6917.926,95.438,541.015,538.566,0.0
50203.0,STARLINK-3257,PAYLOAD,2023-01-24 07:01:11,15.08869776,0.0001471,53.2164,318.5716,74.937,285.1785,0.0016742999999999,0.00026481,0.0,0 STARLINK-3257,1 50203U 21125AZ  23024.29249444  .00026481  00000-0  16743-2 0  9994,2 50203  53.2164 318.5716 0001471  74.9370 285.1785 15.08869776 61490,6917.789000000001,95.436,540.672,538.637,0.0
50203.0,STARLINK-3257,PAYLOAD,2023-01-25 05:16:35,15.08863392,0.0001254,53.2154,314.4088,76.9187,283.1945,0.0017299,0.00027368,0.0,0 STARLINK-3257,1 50203U 21125AZ  23025.21985457  .00027368  00000-0  17299-2 0  9990,2 50203  53.2154 314.4088 0001254  76.9187 283.1945 15.08863392 61633,6917.809,95.436,540.5409999999999,538.806,0.0
50203.0,STARLINK-3257,PAYLOAD,2023-01-25 11:38:07,15.08845295,8.690000000000001e-05,53.2152,313.2176,102.5064,257.6026,0.00083354,0.00013005,0.0,0 STARLINK-3257,1 50203U 21125AZ  23025.48481392  .00013005  00000-0  83354-3 0  9997,2 50203  53.2152 313.2176 0000869 102.5064 257.6026 15.08845295 61679,6917.8640000000005,95.437,540.33,539.128,0.0
50203.0,STARLINK-3257,PAYLOAD,2023-01-26 01:56:36,15.08815827,9.53e-05,53.2158,310.5439,98.0626,262.0474,0.00040759,6.201e-05,0.0,0 STARLINK-3257,1 50203U 21125AZ  23026.08098335  .00006201  00000-0  40759-3 0  9997,2 50203  53.2158 310.5439 0000953  98.0626 262.0474 15.08815827 61769,6917.954000000001,95.439,540.479,539.16,0.0
50203.0,STARLINK-3257,PAYLOAD,2023-01-27 01:47:24,15.08854337,0.0001046,53.2138,306.0827,93.2688,266.8423,0.0016621,0.00026274,0.0,0 STARLINK-3257,1 50203U 21125AZ  23027.07458938  .00026274  00000-0  16621-2 0  9998,2 50203  53.2138 306.0827 0001046  93.2688 266.8423 15.08854337 61919,6917.837,95.437,540.425,538.9780000000001,0.0
50203.0,STARLINK-3257,PAYLOAD,2023-01-27 04:58:10,15.08862985,0.0001022,53.2136,305.4876,85.4591,274.6518,0.001542,0.00024354,0.0,0 STARLINK-3257,1 50203U 21125AZ  23027.20706695  .00024354  00000-0  15420-2 0  9992,2 50203  53.2136 305.4876 0001022  85.4591 274.6518 15.08862985 65075,6917.81,95.436,540.382,538.9680000000001,0.0
50203.0,STARLINK-3257,PAYLOAD,2023-01-28 03:13:34,15.08859375,0.0001284,53.2135,301.3219,81.8461,278.2677,0.00070611,0.00010974,0.0,0 STARLINK-3257,1 50203U 21125AZ  23028.13442400  .00010974  00000-0  70611-3 0  9993,2 50203  53.2135 301.3219 0001284  81.8461 278.2677 15.08859375 62078,6917.821,95.436,540.5740000000001,538.798,0.0
50203.0,STARLINK-3257,PAYLOAD,2023-01-29 03:04:20,15.08852703,0.0001239,53.2131,296.8622,87.173,272.9404,0.00021577,3.149e-05,0.0,0 STARLINK-3257,1 50203U 21125AZ  23029.12801901  .00003149  00000-0  21577-3 0  9991,2 50203  53.2131 296.8622 0001239  87.1730 272.9404 15.08852703 62222,6917.842,95.437,540.564,538.849,0.0
50203.0,STARLINK-3257,PAYLOAD,2023-01-29 17:22:49,15.08839334,0.0001437,53.2143,294.1851,84.5651,275.5505,-7.4341e-06,-4.06e-06,0.0,0 STARLINK-3257,1 50203U 21125AZ  23029.72418453 -.00000406  00000-0 -74341-5 0  9997,2 50203  53.2143 294.1851 0001437  84.5651 275.5505 15.08839334 62319,6917.882,95.438,540.742,538.753,0.0
50203.0,STARLINK-3257,PAYLOAD,2023-01-30 02:55:08,15.0884127,0.0001357,53.2138,292.4014,80.978,279.1366,4.573e-05,4.4e-06,0.0,0 STARLINK-3257,1 50203U 21125AZ  23030.12162395  .00000440  00000-0  45730-4 0  9999,2 50203  53.2138 292.4014 0001357  80.9780 279.1366 15.08841270 65511,6917.877,95.437,540.68,538.803,0.0
50203.0,STARLINK-3257,PAYLOAD,2023-01-30 21:59:45,15.08846676,0.0001368,53.2132,288.8337,76.4698,283.6446,0.00019014,2.74e-05,0.0,0 STARLINK-3257,1 50203U 21125AZ  23030.91650358  .00002740  00000-0  19014-3 0  9997,2 50203  53.2132 288.8337 0001368  76.4698 283.6446 15.08846676 65639,6917.86,95.437,540.671,538.779,0.0
50203.0,STARLINK-3257,PAYLOAD,2023-01-30 23:35:08,15.08848321,0.0001391,53.2134,288.5361,81.1794,278.9356,0.00025177,3.722e-05,0.0,0 STARLINK-3257,1 50203U 21125AZ  23030.98274293  .00003722  00000-0  25177-3 0  9992,2 50203  53.2134 288.5361 0001391  81.1794 278.9356 15.08848321 62500,6917.855,95.437,540.682,538.758,0.0
50203.0,STARLINK-3257,PAYLOAD,2023-01-31 02:45:55,15.08850649,0.0001334,53.2134,287.9413,80.2097,279.9046,0.00028877,4.312e-05,0.0,0 STARLINK-3257,1 50203U 21125AZ  23031.11522095  .00004312  00000-0  28877-3 0  9990,2 50203  53.2134 287.9413 0001334  80.2097 279.9046 15.08850649 65667,6917.848,95.437,540.636,538.79,0.0
50203.0,STARLINK-3257,PAYLOAD,2023-01-31 17:04:23,15.08847967,0.0001279,53.2129,285.2649,78.6294,281.4842,0.00026924,4.001e-05,0.0,0 STARLINK-3257,1 50203U 21125AZ  23031.71138253  .00004001  00000-0  26924-3 0  9991,2 50203  53.2129 285.2649 0001279  78.6294 281.4842 15.08847967 62614,6917.856,95.437,540.606,538.836,0.0
50203.0,STARLINK-3257,PAYLOAD,2023-02-01 02:36:41,15.08858247,0.0001407,53.2129,283.4805,84.1142,276.001,0.00047533,7.289e-05,0.0,0 STARLINK-3257,1 50203U 21125AZ  23032.10881769  .00007289  00000-0  47533-3 0  9992,2 50203  53.2129 283.4805 0001407  84.1142 276.0010 15.08858247 65810,6917.825,95.436,540.663,538.716,0.0
50203.0,STARLINK-3257,PAYLOAD,2023-02-01 15:19:47,15.08840956,0.0001287,53.213,281.1015,93.1044,267.0096,3.5364e-05,2.75e-06,0.0,0 STARLINK-3257,1 50203U 21125AZ  23032.63874079  .00000275  00000-0  35364-4 0  9994,2 50203  53.2130 281.1015 0001287  93.1044 267.0096 15.08840956 62759,6917.877,95.437,540.633,538.852,0.0
50203.0,STARLINK-3257,PAYLOAD,2023-02-02 02:27:29,15.08843839,0.00015,53.2125,279.0202,92.3822,267.7342,9.9813e-05,1.301e-05,0.0,0 STARLINK-3257,1 50203U 21125AZ  23033.10242052  .00001301  00000-0  99813-4 0  9997,2 50203  53.2125 279.0202 0001500  92.3822 267.7342 15.08843839 65960,6917.869,95.437,540.771,538.696,0.0
50203.0,STARLINK-3257,PAYLOAD,2023-02-02 23:07:29,15.08843577,0.0001608,53.2118,275.1544,97.3853,262.7322,0.00016188,2.289e-05,0.0,0 STARLINK-3257,1 50203U 21125AZ  23033.96354059  .00002289  00000-0  16188-3 0  9991,2 50203  53.2118 275.1544 0001608  97.3853 262.7322 15.08843577 62954,6917.869,95.437,540.847,538.622,0.0
50203.0,STARLINK-3257,PAYLOAD,2023-02-03 02:18:16,15.08843975,0.0001313,53.2126,274.5592,93.7664,266.3478,0.00020989,3.054e-05,0.0,0 STARLINK-3257,1 50203U 21125AZ  23034.09602025  .00003054  00000-0  20989-3 0  9990,2 50203  53.2126 274.5592 0001313  93.7664 266.3478 15.08843975 66118,6917.868,95.437,540.642,538.825,0.0
